[{"OBJECT_NAME":"UOSAT 2 (UO-11)","OBJECT_ID":"1984-021B","EPOCH":"2026-03-09T22:36:42.882336","MEAN_MOTION":14.90508611,"ECCENTRICITY":0.00084315,"INCLINATION":97.795,"RA_OF_ASC_NODE":35.7082,"ARG_OF_PERICENTER":142.6564,"MEAN_ANOMALY":217.5241,"EPHEMERIS_TYPE":0,"CLASSIFICATION_TYPE":"U","NORAD_CAT_ID":14781,"ELEMENT_SET_NO":999,"REV_AT_EPOCH":24234,"BSTAR":0.00019045532,"MEAN_MOTION_DOT":1.805e-5,"MEAN_MOTION_DDOT":0},{"OBJECT_NAME":"CZ-6A DEB","OBJECT_ID":"2022-151CY","EPOCH":"2026-03-09T19:21:20.301408","MEAN_MOTION":14.65961261,"ECCENTRICITY":0.01090554,"INCLINATION":99.0712,"RA_OF_ASC_NODE":187.2777,"ARG_OF_PERICENTER":305.904,"MEAN_ANOMALY":53.2076,"EPHEMERIS_TYPE":0,"CLASSIFICATION_TYPE":"U","NORAD_CAT_ID":54353,"ELEMENT_SET_NO":999,"REV_AT_EPOCH":17500,"BSTAR":0.0022943309,"MEAN_MOTION_DOT":0.00013679,"MEAN_MOTION_DDOT":0}]
